{"type": "FeatureCollection", "features": [ {"type": "Feature", "properties": {"norad_id": 38552, "name": "METEOSAT-10 (MSG-3)", "group": "weather", "lat": -4.17711240313018, "lon": -17.463963562297366, "alt_km": 35782.42348688454, "timestamp": "2025-12-19T16:54:43.892313+00:00", "meta": {"OBJECT_NAME": "METEOSAT-10 (MSG-3)", "OBJECT_ID": "2012-035B", "EPOCH": "2025-12-19T01:16:53.237280", "MEAN_MOTION": 1.00276486, "ECCENTRICITY": 6.945e-05, "INCLINATION": 4.2428, "RA_OF_ASC_NODE": 61.7071, "ARG_OF_PERICENTER": 269.7675, "MEAN_ANOMALY": 135.9214, "EPHEMERIS_TYPE": 0, "CLASSIFICATION_TYPE": "U", "NORAD_CAT_ID": 38552, "ELEMENT_SET_NO": 999, "REV_AT_EPOCH": 4905, "BSTAR": 0, "MEAN_MOTION_DOT": 1.7e-07, "MEAN_MOTION_DDOT": 0}, "tle": {"line1": "1 38552U 12035B   25353.05339395  .00000017  00000+0  00000+0 0  9995", "line2": "2 38552   4.2428  61.7071 0000694 269.7675 135.9214  1.00276486 49055"}}, "geometry": {"type": "Point", "coordinates": [-17.463963562297366, -4.17711240313018]}}, {"type": "Feature", "properties": {"norad_id": 38771, "name": "METOP-B", "group": "weather", "lat": 66.15030067336197, "lon": 23.332415617801843, "alt_km": 813.0210931382926, "timestamp": "2025-12-19T16:54:43.892349+00:00", "meta": {"OBJECT_NAME": "METOP-B", "OBJECT_ID": "2012-049A", "EPOCH": "2025-12-19T06:27:29.960928", "MEAN_MOTION": 14.21410786, "ECCENTRICITY": 0.00031452, "INCLINATION": 98.679, "RA_OF_ASC_NODE": 43.1169, "ARG_OF_PERICENTER": 130.4102, "MEAN_ANOMALY": 229.7351, "EPHEMERIS_TYPE": 0, "CLASSIFICATION_TYPE": "U", "NORAD_CAT_ID": 38771, "ELEMENT_SET_NO": 999, "REV_AT_EPOCH": 68770, "BSTAR": 7.2382726e-05, "MEAN_MOTION_DOT": 1.15e-06, "MEAN_MOTION_DDOT": 0}, "tle": {"line1": "1 38771U 12049A   25353.26909677  .00000115  00000+0  72383-4 0  9999", "line2": "2 38771  98.6790  43.1169 0003145 130.4102 229.7351 14.21410786687706"}}, "geometry": {"type": "Point", "coordinates": [23.332415617801843, 66.15030067336197]}}, {"type": "Feature", "properties": {"norad_id": 39216, "name": "INSAT-3D", "group": "weather", "lat": 0.6827333843055282, "lon": 111.65572602886493, "alt_km": 35791.26177454122, "timestamp": "2025-12-19T16:54:43.892372+00:00", "meta": {"OBJECT_NAME": "INSAT-3D", "OBJECT_ID": "2013-038B", "EPOCH": "2025-12-17T17:21:59.330304", "MEAN_MOTION": 1.00267779, "ECCENTRICITY": 0.00012009, "INCLINATION": 1.4572, "RA_OF_ASC_NODE": 84.9421, "ARG_OF_PERICENTER": 166.0293, "MEAN_ANOMALY": 225.6028, "EPHEMERIS_TYPE": 0, "CLASSIFICATION_TYPE": "U", "NORAD_CAT_ID": 39216, "ELEMENT_SET_NO": 999, "REV_AT_EPOCH": 4526, "BSTAR": 0, "MEAN_MOTION_DOT": -3.16e-06, "MEAN_MOTION_DDOT": 0}, "tle": {"line1": "1 39216U 13038B   25351.72360336 -.00000316  00000+0  00000+0 0  9991", "line2": "2 39216   1.4572  84.9421 0001200 166.0293 225.6028  1.00267779 45261"}}, "geometry": {"type": "Point", "coordinates": [111.65572602886493, 0.6827333843055282]}}, {"type": "Feature", "properties": {"norad_id": 39260, "name": "FENGYUN 3C", "group": "weather", "lat": 8.18312982458887, "lon": 152.27301605543633, "alt_km": 831.1772437639283, "timestamp": "2025-12-19T16:54:43.892390+00:00", "meta": {"OBJECT_NAME": "FENGYUN 3C", "OBJECT_ID": "2013-052A", "EPOCH": "2025-12-19T05:55:36.234624", "MEAN_MOTION": 14.15698294, "ECCENTRICITY": 0.00146503, "INCLINATION": 98.4769, "RA_OF_ASC_NODE": 330.6088, "ARG_OF_PERICENTER": 177.043, "MEAN_ANOMALY": 183.0834, "EPHEMERIS_TYPE": 0, "CLASSIFICATION_TYPE": "U", "NORAD_CAT_ID": 39260, "ELEMENT_SET_NO": 999, "REV_AT_EPOCH": 63310, "BSTAR": 5.5439304e-05, "MEAN_MOTION_DOT": 6.8e-07, "MEAN_MOTION_DDOT": 0}, "tle": {"line1": "1 39260U 13052A   25353.24694716  .00000068  00000+0  55439-4 0  9991", "line2": "2 39260  98.4769 330.6088 0014650 177.0430 183.0834 14.15698294633100"}}, "geometry": {"type": "Point", "coordinates": [152.27301605543633, 8.18312982458887]}}, {"type": "Feature", "properties": {"norad_id": 40069, "name": "METEOR-M 2", "group": "weather", "lat": -63.246287704949154, "lon": -11.743109624333776, "alt_km": 828.9931017511699, "timestamp": "2025-12-19T16:54:43.892407+00:00", "meta": {"OBJECT_NAME": "METEOR-M 2", "OBJECT_ID": "2014-037A", "EPOCH": "2025-12-19T05:23:21.954624", "MEAN_MOTION": 14.21388678, "ECCENTRICITY": 0.00052934, "INCLINATION": 98.4898, "RA_OF_ASC_NODE": 330.5606, "ARG_OF_PERICENTER": 189.1334, "MEAN_ANOMALY": 170.9748, "EPHEMERIS_TYPE": 0, "CLASSIFICATION_TYPE": "U", "NORAD_CAT_ID": 40069, "ELEMENT_SET_NO": 999, "REV_AT_EPOCH": 59375, "BSTAR": 6.1658147e-05, "MEAN_MOTION_DOT": 9.3e-07, "MEAN_MOTION_DDOT": 0}, "tle": {"line1": "1 40069U 14037A   25353.22455966  .00000093  00000+0  61658-4 0  9992", "line2": "2 40069  98.4898 330.5606 0005293 189.1334 170.9748 14.21388678593751"}}, "geometry": {"type": "Point", "coordinates": [-11.743109624333776, -63.246287704949154]}}, {"type": "Feature", "properties": {"norad_id": 40267, "name": "HIMAWARI-8", "group": "weather", "lat": 0.010978018115532926, "lon": 122.88957310098799, "alt_km": 35789.77868999863, "timestamp": "2025-12-19T16:54:43.892430+00:00", "meta": {"OBJECT_NAME": "HIMAWARI-8", "OBJECT_ID": "2014-060A", "EPOCH": "2025-12-19T07:05:03.437088", "MEAN_MOTION": 1.00271553, "ECCENTRICITY": 8.584e-05, "INCLINATION": 0.0131, "RA_OF_ASC_NODE": 87.5006, "ARG_OF_PERICENTER": 207.0375, "MEAN_ANOMALY": 40.5417, "EPHEMERIS_TYPE": 0, "CLASSIFICATION_TYPE": "U", "NORAD_CAT_ID": 40267, "ELEMENT_SET_NO": 999, "REV_AT_EPOCH": 4095, "BSTAR": 0, "MEAN_MOTION_DOT": -2.51e-06, "MEAN_MOTION_DDOT": 0}, "tle": {"line1": "1 40267U 14060A   25353.29517867 -.00000251  00000+0  00000+0 0  9990", "line2": "2 40267   0.0131  87.5006 0000858 207.0375  40.5417  1.00271553 40950"}}, "geometry": {"type": "Point", "coordinates": [122.88957310098799, 0.010978018115532926]}}, {"type": "Feature", "properties": {"norad_id": 40367, "name": "FENGYUN 2G", "group": "weather", "lat": 0.6147112282646613, "lon": 81.5167554646365, "alt_km": 35799.87188075839, "timestamp": "2025-12-19T16:54:43.892449+00:00", "meta": {"OBJECT_NAME": "FENGYUN 2G", "OBJECT_ID": "2014-090A", "EPOCH": "2025-12-18T18:58:27.282720", "MEAN_MOTION": 1.00262065, "ECCENTRICITY": 0.00027475, "INCLINATION": 5.183, "RA_OF_ASC_NODE": 75.0287, "ARG_OF_PERICENTER": 205.322, "MEAN_ANOMALY": 191.2511, "EPHEMERIS_TYPE": 0, "CLASSIFICATION_TYPE": "U", "NORAD_CAT_ID": 40367, "ELEMENT_SET_NO": 999, "REV_AT_EPOCH": 4019, "BSTAR": 0, "MEAN_MOTION_DOT": -2.78e-06, "MEAN_MOTION_DDOT": 0}, "tle": {"line1": "1 40367U 14090A   25352.79059355 -.00000278  00000+0  00000+0 0  9990", "line2": "2 40367   5.1830  75.0287 0002747 205.3220 191.2511  1.00262065 40198"}}, "geometry": {"type": "Point", "coordinates": [81.5167554646365, 0.6147112282646613]}}, {"type": "Feature", "properties": {"norad_id": 40732, "name": "METEOSAT-11 (MSG-4)", "group": "weather", "lat": -2.7189709254902437, "lon": -8.550634001156508, "alt_km": 35789.98357182226, "timestamp": "2025-12-19T16:54:43.892468+00:00", "meta": {"OBJECT_NAME": "METEOSAT-11 (MSG-4)", "OBJECT_ID": "2015-034A", "EPOCH": "2025-12-19T06:27:35.873280", "MEAN_MOTION": 1.00269533, "ECCENTRICITY": 8.675e-05, "INCLINATION": 2.7524, "RA_OF_ASC_NODE": 71.9848, "ARG_OF_PERICENTER": 135.2158, "MEAN_ANOMALY": 347.029, "EPHEMERIS_TYPE": 0, "CLASSIFICATION_TYPE": "U", "NORAD_CAT_ID": 40732, "ELEMENT_SET_NO": 999, "REV_AT_EPOCH": 541, "BSTAR": 0, "MEAN_MOTION_DOT": 8.3e-07, "MEAN_MOTION_DDOT": 0}, "tle": {"line1": "1 40732U 15034A   25353.26916520  .00000083  00000+0  00000+0 0  9997", "line2": "2 40732   2.7524  71.9848 0000867 135.2158 347.0290  1.00269533  5415"}}, "geometry": {"type": "Point", "coordinates": [-8.550634001156508, -2.7189709254902437]}}, {"type": "Feature", "properties": {"norad_id": 41105, "name": "ELEKTRO-L 2", "group": "weather", "lat": -6.04607077308896, "lon": -32.30397711992396, "alt_km": 35776.17647585995, "timestamp": "2025-12-19T16:54:43.892486+00:00", "meta": {"OBJECT_NAME": "ELEKTRO-L 2", "OBJECT_ID": "2015-074A", "EPOCH": "2025-12-19T08:09:48.553920", "MEAN_MOTION": 1.00272645, "ECCENTRICITY": 0.00035305, "INCLINATION": 6.2414, "RA_OF_ASC_NODE": 72.7502, "ARG_OF_PERICENTER": 209.6009, "MEAN_ANOMALY": 273.8109, "EPHEMERIS_TYPE": 0, "CLASSIFICATION_TYPE": "U", "NORAD_CAT_ID": 41105, "ELEMENT_SET_NO": 999, "REV_AT_EPOCH": 3670, "BSTAR": 0, "MEAN_MOTION_DOT": -9.8e-07, "MEAN_MOTION_DDOT": 0}, "tle": {"line1": "1 41105U 15074A   25353.34014530 -.00000098  00000+0  00000+0 0  9992", "line2": "2 41105   6.2414  72.7502 0003530 209.6009 273.8109  1.00272645 36703"}}, "geometry": {"type": "Point", "coordinates": [-32.30397711992396, -6.04607077308896]}}, {"type": "Feature", "properties": {"norad_id": 41752, "name": "INSAT-3DR", "group": "weather", "lat": -0.02855326901833499, "lon": 56.304461322506576, "alt_km": 35835.139856234135, "timestamp": "2025-12-19T16:54:43.892505+00:00", "meta": {"OBJECT_NAME": "INSAT-3DR", "OBJECT_ID": "2016-054A", "EPOCH": "2025-12-18T15:21:37.308096", "MEAN_MOTION": 1.00271616, "ECCENTRICITY": 0.00141413, "INCLINATION": 0.1065, "RA_OF_ASC_NODE": 86.5445, "ARG_OF_PERICENTER": 184.9016, "MEAN_ANOMALY": 120.4485, "EPHEMERIS_TYPE": 0, "CLASSIFICATION_TYPE": "U", "NORAD_CAT_ID": 41752, "ELEMENT_SET_NO": 999, "REV_AT_EPOCH": 3400, "BSTAR": 0, "MEAN_MOTION_DOT": -5.2e-07, "MEAN_MOTION_DDOT": 0}, "tle": {"line1": "1 41752U 16054A   25352.64001514 -.00000052  00000+0  00000+0 0  9999", "line2": "2 41752   0.1065  86.5445 0014141 184.9016 120.4485  1.00271616 34000"}}, "geometry": {"type": "Point", "coordinates": [56.304461322506576, -0.02855326901833499]}}]}